#aV2019 10 22  0  0  0.00000000     288 DD+AD WGS84 FIT  NGA
## 2076 172800.00000000   300.00000000 58778 0.0000000000000
+   32     1  2  3  4  5  6  7  8  9 10 11 12 13 14 15 16 17
+         18 19 20 21 22 23 24 25 26 27 28 29 30 31 32  0  0
+          0  0  0  0  0  0  0  0  0  0  0  0  0  0  0  0  0
+          0  0  0  0  0  0  0  0  0  0  0  0  0  0  0  0  0
+          0  0  0  0  0  0  0  0  0  0  0  0  0  0  0  0  0
++         2  2  2  2  2  2  2  2  2  2  2  2  2  2  2  2  2
++         2  2  2  2  2  2  2  2  2  2  2  2  2  2  2  0  0
++         0  0  0  0  0  0  0  0  0  0  0  0  0  0  0  0  0
++         0  0  0  0  0  0  0  0  0  0  0  0  0  0  0  0  0
++         0  0  0  0  0  0  0  0  0  0  0  0  0  0  0  0  0
%c cc cc ccc ccc cccc cccc cccc cccc ccccc ccccc ccccc ccccc
%c cc cc ccc ccc cccc cccc cccc cccc ccccc ccccc ccccc ccccc
%f  0.0000000  0.000000000  0.00000000000  0.000000000000000
%f  0.0000000  0.000000000  0.00000000000  0.000000000000000
%i    0    0    0    0      0      0      0      0         0
%i    0    0    0    0      0      0      0      0         0
/*      NGA, ST. LOUIS,MO.                                  
/*   EPHEMERIS COMPUTED FROM 2 DAYS OF DATA                 
/*   EPOCHA v5 SMOOTHER                                     
/*   G1762 IERS2010 SATAF SATAPC                            
*  2019 10 22 23 55  0.00000000
P  1 -22353.259712 -14334.175925   2882.968064   -171.884082                    
V  1  -1883.659702  -3940.363128 -31635.762375     -0.130815                    
P  2   8985.026986  19489.760286  16347.567052   -331.456410                    
V  2 -17403.199652  -9146.418059  21163.785762     -0.078452                    
P  3 -13569.940600  -9092.283192  20902.232065    -25.949965                    
V  3   3779.912073 -26389.062052  -8911.862853     -0.051117                    
P  4 -23946.574944  11239.772559  -2294.559420     -2.092266                    
V  4  -3762.410510  -1559.151729  31573.518314     -0.029857                    
P  5   4179.817962  24657.286640  -8786.381788     -2.605626                    
V  5  -3937.610549  10740.662776  28918.974888     -0.004117                    
P  6  -5497.464881  14219.342361  21789.800089    -99.410550                    
V  6 -22361.155586 -16041.749688   4861.680627     -0.126179                    
P  7 -21129.733472  -1846.239993 -15993.706491   -132.810085                    
V  7 -15341.833528 -13954.322632  21030.207232     -0.080783                    
P  8 -13731.753827  -9371.140965 -20726.524499    -10.816658                    
V  8  23691.925613 -11481.746884 -10278.495552     -0.012955                    
P  9 -25000.448513   6541.227137   6097.112850    -63.849718                    
V  9   5904.821307  -5909.233806  30294.220768     -0.100461                    
P 10  11463.032459 -19809.271818 -13224.917930   -104.898155                    
V 10    438.692336  17131.224924 -25375.894787     -0.152525                    
P 11 -24093.544264  -9249.734350  -6067.843593   -470.216914                    
V 11   7874.509316  -2985.645882 -29497.604889      0.112456                    
P 12  10445.634426  14708.952411  19334.380838    191.293922                    
V 12  -5516.726725  24310.105970 -15187.237483     -0.039092                    
P 13   3791.418616  14629.240958 -21958.811721    -37.302663                    
V 13 -26485.226428   7678.271548    613.869481      0.022279                    
P 14  10325.855124 -16837.819431  17996.330780    -54.665599                    
V 14  21594.856134  -5686.093683 -18219.006965      0.020960                    
P 15  15732.052335   8425.587657 -20064.527236   -277.988975                    
V 15 -21182.331571  13076.297854 -10889.473508      0.027101                    
P 16    127.206148 -25325.981112  -7397.300651    -85.863680                    
V 16   4165.663671  -8568.764371  30605.241412     -0.036440                    
P 17 -19164.462858  14924.611780  11062.377292    149.116476                    
V 17 -13182.832750   3015.525285 -28049.681116      0.070611                    
P 18 -19060.339143 -17731.177427  -6023.942722     94.969177                    
V 18   7320.383158   1606.441528 -30358.722900      0.027382                    
P 19 -14182.726820  15618.134746  15854.026737   -250.051286                    
V 19 -20121.865876   4784.493651 -22277.493018      0.052306                    
P 20  14420.723670 -10778.068149 -19574.207527    527.272676                    
V 20   1870.285296  24775.272424 -12516.355399      0.000979                    
P 21  18655.300297  -3053.579870 -17789.619211    -98.060768                    
V 21  19291.126921  14928.429702  17123.895183      0.061313                    
P 22 -12212.259027 -16519.812485  17104.000596   -766.099583                    
V 22   2958.129280 -21279.096543 -18579.975528     -0.030323                    
P 23 -21982.481298  -2153.248325  15369.663526   -159.909104                    
V 23  16236.192597  -9690.295024  21983.993405      0.021809                    
P 24  22452.709908  14540.621451    266.695116     -3.851564                    
V 24  -1334.838180   3000.903082 -31009.124048     -0.006075                    
P 25  15104.399148  -1396.646224  21568.152219    -15.970746                    
V 25  -2806.107170  27760.566620   3976.152015     -0.007873                    
P 26   4576.639672 -25845.206711   3293.267788     67.552226                    
V 26   2943.247737   4498.640143  31253.931960      0.085331                    
P 27   -865.245620 -15489.341930 -21627.364695    -96.143415                    
V 27  25157.515774 -10337.417534   6727.586535     -0.121427                    
P 28 -12329.111713  19982.748742 -11914.635482    758.071119                    
V 28   1367.076133 -16079.226678 -26910.624677     -0.014950                    
P 29  25155.489277  -3514.128924   7779.787388     64.129278                    
V 29  -8683.710810   5088.613446  30229.004184     -0.101814                    
P 30 -13744.508984   8646.234526 -21012.887133    -67.430105                    
V 30 -20525.928211 -17250.416912   6123.204618     -0.082796                    
P 31   4190.437845 -15495.969002  21069.460635      1.857079                    
V 31  21707.490749  15878.959261   7802.861430     -0.025728                    
P 32  18361.244712 -16103.028610  10342.412007    100.414548                    
V 32  13053.333704  -2863.328790 -27919.602752      0.127242                    
EOF
